ADRAS-J                 
1 58992U 24034A   24203.53124530  .00006097  00000+0  56339-3 0  9990
2 58992  98.2132 178.1214 0042069 296.6321  63.0592 14.94318772 22997
